IRIDIUM 921 [-]         
1 24873U 97034E   23300.73994789  .00020561  00000+0  77526-3 0  9994
2 24873  86.3904  42.3699 0006497  67.9661 292.2275 15.26926762439438
IRIDIUM 26 [-]          
1 24903U 97043A   23300.92948907  .00000545  00000+0  18060-3 0  9998
2 24903  86.4004   1.6292 0001976  92.2037 267.9386 14.36056264371322
DUMMY MASS 1 [-]        
1 24925U 97048A   23300.60280123  .00000717  00000+0  79077-4 0  9998
2 24925  86.3366  51.8631 0009156 102.8222 257.4026 14.85894692416450
DUMMY MASS 2 [-]        
1 24926U 97048B   23300.60167843  .00000715  00000+0  79250-4 0  9993
2 24926  86.3365  53.3659 0009833 111.5768 248.6505 14.85655729416002
IRIDIUM 29 [-]          
1 24944U 97051A   23300.53429162  .00000444  00000+0  14799-3 0  9999
2 24944  86.4003  34.8075 0002340  89.0791 271.0673 14.35418852367368
IRIDIUM 28 [-]          
1 24948U 97051E   23300.69205313  .00000593  00000+0  19609-3 0  9990
2 24948  86.4011  32.6022 0001757  99.1805 260.9591 14.36358673367909
